{
  "55753": {
    "noradId": "55753",
    "tle": [
      "1 55753C 23028N   26061.16993056  .00006925  00000+0  58039-3 0   613",
      "2 55753  69.9993 263.3811 0002646 271.9038 123.3617 14.98323230    13"
    ]
  },
  "55754": {
    "noradId": "55754",
    "tle": [
      "1 55754C 23028P   26061.16645833  .00007400  00000+0  62004-3 0   617",
      "2 55754  69.9992 263.3366 0003014 269.6864 152.6820 14.98330757    12"
    ]
  },
  "55756": {
    "noradId": "55756",
    "tle": [
      "1 55756C 23028R   26061.17201389  .00006221  00000+0  52115-3 0   616",
      "2 55756  69.9990 263.2227 0002433 274.6845 267.6924 14.98342278    19"
    ]
  },
  "55757": {
    "noradId": "55757",
    "tle": [
      "1 55757C 23028S   26061.16993056  .00007199  00000+0  60369-3 0   610",
      "2 55757  69.9992 263.3534 0002797 273.9209 144.8705 14.98299717    15"
    ]
  },
  "55758": {
    "noradId": "55758",
    "tle": [
      "1 55758C 23028T   26061.17340278  .00086455  00000+0  72520-2 0   617",
      "2 55758  69.9989 263.2943 0002730 275.5608 206.8688 14.98208392    11"
    ]
  },
  "55760": {
    "noradId": "55760",
    "tle": [
      "1 55760C 23028V   26061.17062500  .00006764  00000+0  56684-3 0   618",
      "2 55760  69.9991 263.2018 0002632 274.4568 282.9097 14.98324243    17"
    ]
  },
  "55761": {
    "noradId": "55761",
    "tle": [
      "1 55761C 23028W   26061.17201389  .00006237  00000+0  52263-3 0   613",
      "2 55761  69.9996 243.5937 0003066 270.1110  47.5473 14.98327690    14"
    ]
  },
  "55762": {
    "noradId": "55762",
    "tle": [
      "1 55762C 23028X   26061.17131944  .00006967  00000+0  58395-3 0   615",
      "2 55762  69.9994 243.5173 0002674 270.4524 111.8976 14.98320869    15"
    ]
  },
  "55763": {
    "noradId": "55763",
    "tle": [
      "1 55763C 23028Y   26061.17201389  .00007058  00000+0  59149-3 0   617",
      "2 55763  69.9991 263.2475 0003016 274.2393 245.6621 14.98323456    12"
    ]
  },
  "55764": {
    "noradId": "55764",
    "tle": [
      "1 55764C 23028Z   26061.16715278  .00006766  00000+0  56701-3 0   610",
      "2 55764  69.9994 243.5537 0002503 278.2829  59.0856 14.98322821    16"
    ]
  },
  "55765": {
    "noradId": "55765",
    "tle": [
      "1 55765C 23028AA  26061.17270833  .00006721  00000+0  56318-3 0   610",
      "2 55765  69.9995 243.5651 0003086 270.0177  74.7808 14.98328265    17"
    ]
  },
  "55766": {
    "noradId": "55766",
    "tle": [
      "1 55766C 23028AB  26061.17201389  .00005738  00000+0  48084-3 0   619",
      "2 55766  69.9996 243.4143 0002925 269.5241 206.6103 14.98324437    11"
    ]
  },
  "55767": {
    "noradId": "55767",
    "tle": [
      "1 55767C 23028AC  26061.16993056  .00006634  00000+0  55598-3 0   612",
      "2 55767  69.9995 243.5976 0003116 269.9927  37.3331 14.98324173    13"
    ]
  },
  "55769": {
    "noradId": "55769",
    "tle": [
      "1 55769C 23028AE  26061.16854167  .00006314  00000+0  52916-3 0   619",
      "2 55769  69.9994 243.4743 0002784 271.5024 140.8808 14.98325822    13"
    ]
  },
  "55770": {
    "noradId": "55770",
    "tle": [
      "1 55770C 23028AF  26061.16854167  .00006079  00000+0  50946-3 0   610",
      "2 55770  69.9994 243.4491 0002890 270.3414 164.5623 14.98323539    14"
    ]
  },
  "55771": {
    "noradId": "55771",
    "tle": [
      "1 55771C 23028AG  26061.16715278  .00003487  00000+0  29210-3 0   610",
      "2 55771  69.9998 243.4010 0002638 276.0335 196.3503 14.98340580    16"
    ]
  },
  "55772": {
    "noradId": "55772",
    "tle": [
      "1 55772C 23028AH  26061.16993056  .00005893  00000+0  49378-3 0   613",
      "2 55772  69.9997 243.2958 0002929 271.5001 305.0424 14.98328641    13"
    ]
  },
  "55773": {
    "noradId": "55773",
    "tle": [
      "1 55773C 23028AJ  26061.17201389  .00007194  00000+0  60292-3 0   610",
      "2 55773  69.9994 243.4874 0003017 271.1021 137.4910 14.98323394    14"
    ]
  },
  "55774": {
    "noradId": "55774",
    "tle": [
      "1 55774C 23028AK  26061.16854167  .00005939  00000+0  49771-3 0   612",
      "2 55774  69.9994 243.3732 0002651 271.6713 230.7595 14.98322143    10"
    ]
  },
  "55775": {
    "noradId": "55775",
    "tle": [
      "1 55775C 23028AL  26061.16854167  .00005972  00000+0  50044-3 0   615",
      "2 55775  69.9997 243.3477 0002909 271.6431 253.2605 14.98327655    18"
    ]
  },
  "55777": {
    "noradId": "55777",
    "tle": [
      "1 55777C 23028AN  26061.16854167  .00006319  00000+0  52930-3 0   619",
      "2 55777  69.9998 243.2975 0002858 274.2156 295.6411 14.98341794    14"
    ]
  },
  "55778": {
    "noradId": "55778",
    "tle": [
      "1 55778C 23028AP  26061.17270833  .00006076  00000+0  50924-3 0   614",
      "2 55778  69.9998 243.2618 0002657 273.6237 341.3056 14.98323905    17"
    ]
  },
  "55779": {
    "noradId": "55779",
    "tle": [
      "1 55779C 23028AQ  26061.17340278  .00003913  00000+0  32794-3 0   618",
      "2 55779  69.9997 223.2035 0002981 271.6517 145.7813 14.98328700    12"
    ]
  },
  "55780": {
    "noradId": "55780",
    "tle": [
      "1 55780C 23028AR  26061.17131944  .00006478  00000+0  54277-3 0   617",
      "2 55780  69.9997 243.2402 0002669 270.3156 359.5500 14.98329804    16"
    ]
  },
  "55781": {
    "noradId": "55781",
    "tle": [
      "1 55781C 23028AS  26061.16576389  .00007899  00000+0  66212-3 0   613",
      "2 55781  69.9996 243.3635 0003047 273.0355 259.4629 14.98312597    18"
    ]
  },
  "55782": {
    "noradId": "55782",
    "tle": [
      "1 55782C 23028AT  26061.16576389  .00005067  00000+0  42461-3 0   619",
      "2 55782  69.9999 223.6052 0003278 270.6725 127.0520 14.98325657    17"
    ]
  },
  "55783": {
    "noradId": "55783",
    "tle": [
      "1 55783C 23028AU  26061.17270833  .00005725  00000+0  47980-3 0   618",
      "2 55783  69.9999 223.5857 0003101 269.8812 166.1810 14.98324072    18"
    ]
  },
  "55784": {
    "noradId": "55784",
    "tle": [
      "1 55784C 23028AV  26061.16923611  .00005148  00000+0  43142-3 0   612",
      "2 55784  70.0002 223.4944 0003042 278.9688 227.5212 14.98325544    12"
    ]
  },
  "55785": {
    "noradId": "55785",
    "tle": [
      "1 55785C 23028AW  26061.16923611  .00004695  00000+0  39349-3 0   613",
      "2 55785  70.0000 223.5691 0002845 272.9295 166.9236 14.98323149    10"
    ]
  },
  "55786": {
    "noradId": "55786",
    "tle": [
      "1 55786C 23028AX  26061.16645833  .00005801  00000+0  48612-3 0   614",
      "2 55786  70.0003 223.4999 0002454 271.9118 220.4874 14.98325430    12"
    ]
  },
  "55787": {
    "noradId": "55787",
    "tle": [
      "1 55787C 23028AY  26061.16993056  .00005046  00000+0  42284-3 0   618",
      "2 55787  70.0001 223.5422 0003131 270.6790 195.4034 14.98327759    13"
    ]
  },
  "55788": {
    "noradId": "55788",
    "tle": [
      "1 55788C 23028AZ  26061.17270833  .00001147  00000+0  96055-4 0   615",
      "2 55788  70.0002 223.5099 0003334 275.7627 227.7669 14.98349032    16"
    ]
  },
  "55789": {
    "noradId": "55789",
    "tle": [
      "1 55789C 23028BA  26061.17270833  .00004716  00000+0  39518-3 0   611",
      "2 55789  70.0001 223.3574 0003273 269.4968   9.1351 14.98328065    15"
    ]
  },
  "55790": {
    "noradId": "55790",
    "tle": [
      "1 55790C 23028BB  26061.16784722  .00008079  00000+0  67705-3 0   614",
      "2 55790  70.0000 223.3976 0003171 268.4288 320.5415 14.98320658    14"
    ]
  },
  "55791": {
    "noradId": "55791",
    "tle": [
      "1 55791C 23028BC  26061.16715278  .00005103  00000+0  42764-3 0   618",
      "2 55791  70.0002 223.4733 0003248 272.2854 246.3673 14.98325691    19"
    ]
  },
  "55914": {
    "noradId": "55914",
    "tle": [
      "1 55914C 23037A   26061.17131944  .00008613  00000+0  72179-3 0   610",
      "2 55914  70.0027 323.5643 0002759 274.5481 215.2783 14.98320865    17"
    ]
  },
  "55915": {
    "noradId": "55915",
    "tle": [
      "1 55915C 23037B   26061.16645833  .00012689  00000+0  10635-2 0   613",
      "2 55915  70.0020 323.4775 0003098 269.4378 284.2190 14.98313797    15"
    ]
  },
  "55916": {
    "noradId": "55916",
    "tle": [
      "1 55916C 23037C   26061.17062500  .00009980  00000+0  83638-3 0   613",
      "2 55916  70.0028 323.5397 0002817 271.2666 237.3297 14.98320531    15"
    ]
  },
  "55918": {
    "noradId": "55918",
    "tle": [
      "1 55918C 23037E   26061.16923611  .00009975  00000+0  83601-3 0   617",
      "2 55918  70.0028 323.5177 0002833 269.9166 253.7006 14.98319483    14"
    ]
  },
  "55919": {
    "noradId": "55919",
    "tle": [
      "1 55919C 23037F   26061.16645833  .00008086  00000+0  67800-3 0   610",
      "2 55919  70.0026 323.4757 0003049 271.0749 281.6877 14.98299221    10"
    ]
  },
  "55920": {
    "noradId": "55920",
    "tle": [
      "1 55920C 23037G   26061.17062500  .00007811  00000+0  65475-3 0   618",
      "2 55920  70.0004 303.6126 0002735 272.4715 282.3698 14.98314544    12"
    ]
  },
  "55921": {
    "noradId": "55921",
    "tle": [
      "1 55921C 23037H   26061.17131944  .00009218  00000+0  77265-3 0   611",
      "2 55921  70.0021 323.3634 0001875 268.5493  41.3607 14.98315179    16"
    ]
  },
  "55922": {
    "noradId": "55922",
    "tle": [
      "1 55922C 23037J   26061.16645833  .00010965  00000+0  91932-3 0   616",
      "2 55922  70.0023 323.4007 0002768 267.6340 353.5873 14.98304432    10"
    ]
  },
  "55923": {
    "noradId": "55923",
    "tle": [
      "1 55923C 23037K   26061.16715278  .00008968  00000+0  75163-3 0   616",
      "2 55923  70.0027 323.4233 0002852 269.5034 332.9213 14.98316016    11"
    ]
  },
  "55924": {
    "noradId": "55924",
    "tle": [
      "1 55924C 23037L   26061.17201389  .00009650  00000+0  80904-3 0   619",
      "2 55924  70.0003 303.5818 0002906 268.2295 316.6290 14.98305887    17"
    ]
  }
}